TDRS 3                  
1 19548U 88091B   26064.79815523 -.00000303  00000+0  00000+0 0  9996
2 19548  12.6797 341.6841 0044183 353.3967  66.2018  1.00259845124356
HST                     
1 20580U 90037B   26065.09294664  .00008390  00000+0  27790-3 0  9990
2 20580  28.4707  64.5335 0001795  90.2676 269.8125 15.29414630772760
TDRS 5                  
1 21639U 91054B   26064.69857539  .00000080  00000+0  00000+0 0  9996
2 21639  14.0839 354.5436 0010631 277.9523 334.8614  1.00267149126675
TDRS 6                  
1 22314U 93003B   26065.24170468 -.00000298  00000+0  00000+0 0  9996
2 22314  14.1809 357.8214 0005499 200.3379   6.8844  1.00278079121376
TDRS 7                  
1 23613U 95035B   26064.70125711 -.00000243  00000+0  00000+0 0  9997
2 23613  13.4200 348.8997 0008223  47.6107 108.4062  1.00276158112213
ISS (ZARYA)             
1 25544U 98067A   26065.22200803  .00008136  00000+0  15844-3 0  9998
2 25544  51.6317  89.5003 0008136 162.2758 197.8515 15.48470661555798
TERRA                   
1 25994U 99068A   26065.22407828  .00000628  00000+0  13705-3 0  9997
2 25994  97.9600 118.7911 0002496 159.7278 270.0945 14.61010573394573
TDRS 8                  
1 26388U 00034A   26064.88531604 -.00000199  00000+0  00000+0 0  9995
2 26388  12.5213  32.1832 0006146 308.7491 226.1757  1.00276226 94145
TIMED                   
1 26998U 01055B   26065.16626879  .00001658  00000+0  15516-3 0  9999
2 26998  74.0660  82.4121 0002998 279.6089  80.4756 14.95007977315420
AQUA                    
1 27424U 02022A   26065.27060947  .00001501  00000+0  30943-3 0  9997
2 27424  98.4171  32.5734 0000596  64.3076  39.4624 14.61967232268231
SORCE                   
1 27651U 03004A   26065.24419010  .00004366  00000+0  32831-3 0  9996
2 27651  39.9902 128.7394 0016266  28.8271 331.3419 15.03066339256405
AURA                    
1 28376U 04026A   26065.27301350  .00001493  00000+0  31324-3 0  9990
2 28376  98.3307  20.9538 0001023  80.3158 279.8158 14.61139632151188
SWIFT                   
1 28485U 04047A   26064.77024317  .00045464  00000+0  54948-3 0  9996
2 28485  20.5529 257.0201 0003270 342.7398  17.2934 15.58889158170650
THEMIS A                
1 30580U 07004A   26064.12111890 -.00000199  00000+0 -50685-2 0  9994
2 30580   6.7464 120.1883 8405200 177.4845 195.7790  0.87846918 40365
THEMIS D                
1 30797U 07004D   26065.13350147 -.00000281  00000+0  00000+0 0  9990
2 30797   6.6237  84.6439 8357840 215.9554 143.1881  0.87836061 40179
THEMIS E                
1 30798U 07004E   26065.26861539 -.00000281  00000+0  00000+0 0  9997
2 30798   4.1501  99.8014 8361614 201.7628 200.3081  0.87837796 65017
FGRST (GLAST)           
1 33053U 08029A   26064.75271212  .00004713  00000+0  17920-3 0  9994
2 33053  25.5812 202.3523 0008277 181.7392 178.3118 15.23293595980045
